CCSDS_OMM_VERS = 2.0
CREATION_DATE  = 
ORIGINATOR     = 

OBJECT_NAME    = SITRO-AIS-58
OBJECT_ID      = 2025-313L
CENTER_NAME    = EARTH
REF_FRAME      = TEME
TIME_SYSTEM    = UTC
MEAN_ELEMENT_THEORY = SGP/SGP4

EPOCH          = 2026-01-24T03:26:37.618944
MEAN_MOTION    = 15.20219692
ECCENTRICITY   = .0017185
INCLINATION    = 97.4085
RA_OF_ASC_NODE = 101.1299
ARG_OF_PERICENTER = 145.7881
MEAN_ANOMALY   = 214.4465

EPHEMERIS_TYPE = 0
CLASSIFICATION_TYPE = U
NORAD_CAT_ID   = 67258
ELEMENT_SET_NO = 999
REV_AT_EPOCH   = 404
BSTAR          = .8607E-3
MEAN_MOTION_DOT = .18693E-3
MEAN_MOTION_DDOT = 0

CCSDS_OMM_VERS = 2.0
CREATION_DATE  = 
ORIGINATOR     = 

OBJECT_NAME    = 2025-313M
OBJECT_ID      = 2025-313M
CENTER_NAME    = EARTH
REF_FRAME      = TEME
TIME_SYSTEM    = UTC
MEAN_ELEMENT_THEORY = SGP/SGP4

EPOCH          = 2026-01-24T01:45:14.247648
MEAN_MOTION    = 15.20583390
ECCENTRICITY   = .0016326
INCLINATION    = 97.4128
RA_OF_ASC_NODE = 101.0976
ARG_OF_PERICENTER = 144.6432
MEAN_ANOMALY   = 215.5890

EPHEMERIS_TYPE = 0
CLASSIFICATION_TYPE = U
NORAD_CAT_ID   = 67259
ELEMENT_SET_NO = 999
REV_AT_EPOCH   = 403
BSTAR          = .10874E-2
MEAN_MOTION_DOT = .23893E-3
MEAN_MOTION_DDOT = 0

CCSDS_OMM_VERS = 2.0
CREATION_DATE  = 
ORIGINATOR     = 

OBJECT_NAME    = SITRO-AIS-60
OBJECT_ID      = 2025-313N
CENTER_NAME    = EARTH
REF_FRAME      = TEME
TIME_SYSTEM    = UTC
MEAN_ELEMENT_THEORY = SGP/SGP4

EPOCH          = 2026-01-24T01:49:13.331136
MEAN_MOTION    = 15.20240940
ECCENTRICITY   = .0016659
INCLINATION    = 97.4093
RA_OF_ASC_NODE = 101.0707
ARG_OF_PERICENTER = 146.2135
MEAN_ANOMALY   = 214.0166

EPHEMERIS_TYPE = 0
CLASSIFICATION_TYPE = U
NORAD_CAT_ID   = 67260
ELEMENT_SET_NO = 999
REV_AT_EPOCH   = 403
BSTAR          = .67775E-3
MEAN_MOTION_DOT = .14703E-3
MEAN_MOTION_DDOT = 0

CCSDS_OMM_VERS = 2.0
CREATION_DATE  = 
ORIGINATOR     = 

OBJECT_NAME    = 2025-313P
OBJECT_ID      = 2025-313P
CENTER_NAME    = EARTH
REF_FRAME      = TEME
TIME_SYSTEM    = UTC
MEAN_ELEMENT_THEORY = SGP/SGP4

EPOCH          = 2026-01-24T03:16:03.817056
MEAN_MOTION    = 15.20893883
ECCENTRICITY   = .0016005
INCLINATION    = 97.4127
RA_OF_ASC_NODE = 101.1665
ARG_OF_PERICENTER = 144.6601
MEAN_ANOMALY   = 215.5699

EPHEMERIS_TYPE = 0
CLASSIFICATION_TYPE = U
NORAD_CAT_ID   = 67261
ELEMENT_SET_NO = 999
REV_AT_EPOCH   = 404
BSTAR          = .15117E-2
MEAN_MOTION_DOT = .33585E-3
MEAN_MOTION_DDOT = 0

CCSDS_OMM_VERS = 2.0
CREATION_DATE  = 
ORIGINATOR     = 

OBJECT_NAME    = 2025-313Q
OBJECT_ID      = 2025-313Q
CENTER_NAME    = EARTH
REF_FRAME      = TEME
TIME_SYSTEM    = UTC
MEAN_ELEMENT_THEORY = SGP/SGP4

EPOCH          = 2026-01-24T03:20:07.255104
MEAN_MOTION    = 15.20532128
ECCENTRICITY   = .0016237
INCLINATION    = 97.4096
RA_OF_ASC_NODE = 101.1397
ARG_OF_PERICENTER = 146.4734
MEAN_ANOMALY   = 213.7532

EPHEMERIS_TYPE = 0
CLASSIFICATION_TYPE = U
NORAD_CAT_ID   = 67262
ELEMENT_SET_NO = 999
REV_AT_EPOCH   = 404
BSTAR          = .96821E-3
MEAN_MOTION_DOT = .21227E-3
MEAN_MOTION_DDOT = 0

CCSDS_OMM_VERS = 2.0
CREATION_DATE  = 
ORIGINATOR     = 

OBJECT_NAME    = DCS-1
OBJECT_ID      = 2025-313R
CENTER_NAME    = EARTH
REF_FRAME      = TEME
TIME_SYSTEM    = UTC
MEAN_ELEMENT_THEORY = SGP/SGP4

EPOCH          = 2026-01-24T01:46:19.324128
MEAN_MOTION    = 15.20438404
ECCENTRICITY   = .0016221
INCLINATION    = 97.4108
RA_OF_ASC_NODE = 101.0900
ARG_OF_PERICENTER = 145.7614
MEAN_ANOMALY   = 214.4671

EPHEMERIS_TYPE = 0
CLASSIFICATION_TYPE = U
NORAD_CAT_ID   = 67263
ELEMENT_SET_NO = 999
REV_AT_EPOCH   = 403
BSTAR          = .86706E-3
MEAN_MOTION_DOT = .18945E-3
MEAN_MOTION_DDOT = 0

CCSDS_OMM_VERS = 2.0
CREATION_DATE  = 
ORIGINATOR     = 

OBJECT_NAME    = 2025-313S
OBJECT_ID      = 2025-313S
CENTER_NAME    = EARTH
REF_FRAME      = TEME
TIME_SYSTEM    = UTC
MEAN_ELEMENT_THEORY = SGP/SGP4

EPOCH          = 2026-01-24T03:23:32.062848
MEAN_MOTION    = 15.20231211
ECCENTRICITY   = .0016312
INCLINATION    = 97.4178
RA_OF_ASC_NODE = 101.1593
ARG_OF_PERICENTER = 150.3761
MEAN_ANOMALY   = 209.8402

EPHEMERIS_TYPE = 0
CLASSIFICATION_TYPE = U
NORAD_CAT_ID   = 67264
ELEMENT_SET_NO = 999
REV_AT_EPOCH   = 404
BSTAR          = .59265E-3
MEAN_MOTION_DOT = .12839E-3
MEAN_MOTION_DDOT = 0

CCSDS_OMM_VERS = 2.0
CREATION_DATE  = 
ORIGINATOR     = 

OBJECT_NAME    = SITRO-TD-4
OBJECT_ID      = 2025-313T
CENTER_NAME    = EARTH
REF_FRAME      = TEME
TIME_SYSTEM    = UTC
MEAN_ELEMENT_THEORY = SGP/SGP4

EPOCH          = 2026-01-24T01:45:38.203776
MEAN_MOTION    = 15.20453525
ECCENTRICITY   = .001617
INCLINATION    = 97.4088
RA_OF_ASC_NODE = 101.0832
ARG_OF_PERICENTER = 146.5289
MEAN_ANOMALY   = 213.6972

EPHEMERIS_TYPE = 0
CLASSIFICATION_TYPE = U
NORAD_CAT_ID   = 67265
ELEMENT_SET_NO = 999
REV_AT_EPOCH   = 403
BSTAR          = .83874E-3
MEAN_MOTION_DOT = .1833E-3
MEAN_MOTION_DDOT = 0

CCSDS_OMM_VERS = 2.0
CREATION_DATE  = 
ORIGINATOR     = 

OBJECT_NAME    = SITRO-AIS-65
OBJECT_ID      = 2025-313U
CENTER_NAME    = EARTH
REF_FRAME      = TEME
TIME_SYSTEM    = UTC
MEAN_ELEMENT_THEORY = SGP/SGP4

EPOCH          = 2026-01-24T01:45:28.022400
MEAN_MOTION    = 15.20465011
ECCENTRICITY   = .0016084
INCLINATION    = 97.4116
RA_OF_ASC_NODE = 101.0923
ARG_OF_PERICENTER = 145.2812
MEAN_ANOMALY   = 214.9477

EPHEMERIS_TYPE = 0
CLASSIFICATION_TYPE = U
NORAD_CAT_ID   = 67266
ELEMENT_SET_NO = 999
REV_AT_EPOCH   = 403
BSTAR          = .7998E-3
MEAN_MOTION_DOT = .17479E-3
MEAN_MOTION_DDOT = 0

CCSDS_OMM_VERS = 2.0
CREATION_DATE  = 
ORIGINATOR     = 

OBJECT_NAME    = 2025-313V
OBJECT_ID      = 2025-313V
CENTER_NAME    = EARTH
REF_FRAME      = TEME
TIME_SYSTEM    = UTC
MEAN_ELEMENT_THEORY = SGP/SGP4

EPOCH          = 2026-01-24T03:18:57.342816
MEAN_MOTION    = 15.20566760
ECCENTRICITY   = .0015265
INCLINATION    = 97.4097
RA_OF_ASC_NODE = 101.1435
ARG_OF_PERICENTER = 150.4606
MEAN_ANOMALY   = 209.7495

EPHEMERIS_TYPE = 0
CLASSIFICATION_TYPE = U
NORAD_CAT_ID   = 67267
ELEMENT_SET_NO = 999
REV_AT_EPOCH   = 404
BSTAR          = .91161E-3
MEAN_MOTION_DOT = .19991E-3
MEAN_MOTION_DDOT = 0

CCSDS_OMM_VERS = 2.0
CREATION_DATE  = 
ORIGINATOR     = 

OBJECT_NAME    = ZORKY-2M 7
OBJECT_ID      = 2025-313W
CENTER_NAME    = EARTH
REF_FRAME      = TEME
TIME_SYSTEM    = UTC
MEAN_ELEMENT_THEORY = SGP/SGP4

EPOCH          = 2026-01-24T03:21:04.978944
MEAN_MOTION    = 15.20388229
ECCENTRICITY   = .0016278
INCLINATION    = 97.4097
RA_OF_ASC_NODE = 101.1399
ARG_OF_PERICENTER = 145.8127
MEAN_ANOMALY   = 214.4160

EPHEMERIS_TYPE = 0
CLASSIFICATION_TYPE = U
NORAD_CAT_ID   = 67268
ELEMENT_SET_NO = 999
REV_AT_EPOCH   = 404
BSTAR          = .64714E-3
MEAN_MOTION_DOT = .14092E-3
MEAN_MOTION_DDOT = 0

CCSDS_OMM_VERS = 2.0
CREATION_DATE  = 
ORIGINATOR     = 

OBJECT_NAME    = 2025-313X
OBJECT_ID      = 2025-313X
CENTER_NAME    = EARTH
REF_FRAME      = TEME
TIME_SYSTEM    = UTC
MEAN_ELEMENT_THEORY = SGP/SGP4

EPOCH          = 2026-01-24T01:42:48.585024
MEAN_MOTION    = 15.20700898
ECCENTRICITY   = .001597
INCLINATION    = 97.4123
RA_OF_ASC_NODE = 101.0974
ARG_OF_PERICENTER = 144.5373
MEAN_ANOMALY   = 215.6928

EPHEMERIS_TYPE = 0
CLASSIFICATION_TYPE = U
NORAD_CAT_ID   = 67269
ELEMENT_SET_NO = 999
REV_AT_EPOCH   = 403
BSTAR          = .1179E-2
MEAN_MOTION_DOT = .26004E-3
MEAN_MOTION_DDOT = 0

