SITRO-AIS-58            
1 67258U 25313L   26024.14349096  .00018693  00000+0  86070-3 0  9992
2 67258  97.4085 101.1299 0017185 145.7881 214.4465 15.20219692  4043
2025-313M               
1 67259U 25313M   26024.07308157  .00023893  00000+0  10874-2 0  9994
2 67259  97.4128 101.0976 0016326 144.6432 215.5890 15.20583390  4031
SITRO-AIS-60            
1 67260U 25313N   26024.07584874  .00014703  00000+0  67775-3 0  9991
2 67260  97.4093 101.0707 0016659 146.2135 214.0166 15.20240940  4034
2025-313P               
1 67261U 25313P   26024.13615529  .00033585  00000+0  15117-2 0  9992
2 67261  97.4127 101.1665 0016005 144.6601 215.5699 15.20893883  4040
2025-313Q               
1 67262U 25313Q   26024.13897286  .00021227  00000+0  96821-3 0  9997
2 67262  97.4096 101.1397 0016237 146.4734 213.7532 15.20532128  4040
DCS-1                   
1 67263U 25313R   26024.07383477  .00018945  00000+0  86706-3 0  9997
2 67263  97.4108 101.0900 0016221 145.7614 214.4671 15.20438404  4039
2025-313S               
1 67264U 25313S   26024.14134332  .00012839  00000+0  59265-3 0  9996
2 67264  97.4178 101.1593 0016312 150.3761 209.8402 15.20231211  4040
SITRO-TD-4              
1 67265U 25313T   26024.07335884  .00018330  00000+0  83874-3 0  9999
2 67265  97.4088 101.0832 0016170 146.5289 213.6972 15.20453525  4038
SITRO-AIS-65            
1 67266U 25313U   26024.07324100  .00017479  00000+0  79980-3 0  9995
2 67266  97.4116 101.0923 0016084 145.2812 214.9477 15.20465011  4031
2025-313V               
1 67267U 25313V   26024.13816369  .00019991  00000+0  91161-3 0  9992
2 67267  97.4097 101.1435 0015265 150.4606 209.7495 15.20566760  4044
ZORKY-2M 7              
1 67268U 25313W   26024.13964096  .00014092  00000+0  64714-3 0  9995
2 67268  97.4097 101.1399 0016278 145.8127 214.4160 15.20388229  4049
2025-313X               
1 67269U 25313X   26024.07139566  .00026004  00000+0  11790-2 0  9996
2 67269  97.4123 101.0974 0015970 144.5373 215.6928 15.20700898  4039
